LEMUR-1                 
1 40044U 14033AL  22292.76722617  .00001468  00000+0  21868-3 0  9994
2 40044  97.6588 114.6328 0059293 115.8336 244.9005 14.75128954447800
LEMUR-2-XIAOQING        
1 41871U 16062C   22292.71248101  .00036514  00000+0  79365-3 0  9998
2 41871  51.6322 105.6475 0001970   0.0739   0.0247 15.43976971329106
LEMUR-2-SOKOLSKY        
1 41872U 16062D   22293.52891570  .00035618  00000+0  77513-3 0  9990
2 41872  51.6747 112.0119 0002672 211.6199 148.4627 15.43952335329191
LEMUR-2-ANUBHAVTHAKUR   
1 41873U 16062E   22292.07053614  .00009859  00000+0  35124-3 0  9999
2 41873  51.6790 168.4790 0006458   3.3748 356.7276 15.29531651328249
LEMUR-2-WINGO           
1 41874U 16062F   22293.04340686  .00032786  00000+0  75230-3 0  9993
2 41874  51.6449 115.4216 0008680 300.0611  59.9514 15.42383086329016
LEMUR-2-JOBANPUTRA      
1 41991U 17008AV  22292.73470316  .00021567  00000+0  60594-3 0  9995
2 41991  97.2458 351.9778 0007120 142.7275 217.4465 15.36519089315239
LEMUR-2-SPIRE-MINIONS   
1 41992U 17008AW  22293.18200662  .00028775  00000+0  69081-3 0  9999
2 41992  97.2542 357.4854 0005746 130.1440 230.0311 15.41305364315581
LEMUR-2-SATCHMO         
1 41993U 17008AX  22292.41215003  .00018919  00000+0  56016-3 0  9993
2 41993  97.2468 352.0270 0006810 144.1601 216.0101 15.34901246315202
LEMUR-2-SMITA-SHARAD    
1 41994U 17008AY  22293.16944856  .00030621  00000+0  73321-3 0  9994
2 41994  97.2531 357.2300 0005760 130.5197 229.6553 15.41371124315572
LEMUR-2-RDEATON         
1 41995U 17008AZ  22293.17031582  .00014085  00000+0  42164-3 0  9996
2 41995  97.2509 353.0101 0007398 152.0095 208.1547 15.34613536316008
LEMUR-2-TACHIKOMA       
1 41996U 17008BA  22293.15059278  .00020261  00000+0  50245-3 0  9999
2 41996  97.2586 357.4436 0006731 145.2725 214.8962 15.40382996315449
LEMUR-2-NOGUECORREIG    
1 41997U 17008BB  22292.48495789  .00030097  00000+0  72050-3 0  9992
2 41997  97.2558 357.3213 0006420 146.8800 213.2850 15.41377620315489
LEMUR-2-MIA-GRACE       
1 41998U 17008BC  22293.11612299  .00015701  00000+0  47158-3 0  9997
2 41998  97.2481 352.5063 0007337 154.5234 205.6373 15.34484079315215
LEMUR-2-ANGELA          
1 42752U 17019B   22293.40566094  .00031734  00000+0  58432-3 0  9992
2 42752  51.6338 346.9571 0004463 120.1014 240.0417 15.48871371300498
LEMUR-2-JENNYBARNA      
1 42753U 17019C   22293.35221498  .00126216  00000+0  11075-2 0  9994
2 42753  51.6227 310.9815 0004982  80.7355 279.4204 15.67914055300929
LEMUR-2-ROBMOORE        
1 42754U 17019D   22293.45303292  .00025662  00000+0  50339-3 0  9999
2 42754  51.6341 348.7255 0003629 135.4054 224.7226 15.47166777300458
LEMUR-2-SPIROVISION     
1 42755U 17019E   22293.35630449  .00122397  00000+0  11225-2 0  9999
2 42755  51.6282 312.1731 0004371  84.0347  17.1602 15.66842602300828
LEMUR-2-SHAINAJOHL      
1 42771U 17036G   22292.85342779  .00019124  00000+0  57888-3 0  9995
2 42771  97.1891 330.9959 0009373 223.2725 136.7782 15.34178527296038
LEMUR-2-XUENITERENCE    
1 42772U 17036H   22292.36213957  .00026276  00000+0  74180-3 0  9997
2 42772  97.1796 330.7638 0008776 218.9382 141.1232 15.36315495296018
LEMUR-2-LUCYBRYCE       
1 42773U 17036J   22293.11312980  .00016549  00000+0  54283-3 0  9992
2 42773  97.1928 331.2129 0009741 224.9006 135.1449 15.31637678296029
LEMUR-2-KUNGFOO         
1 42774U 17036K   22293.41632941  .00018468  00000+0  55204-3 0  9994
2 42774  97.1887 332.0259 0009027 217.3846 142.6770 15.34586367296146
LEMUR-2-LYNSEY-SYMO     
1 42779U 17036Q   22293.39328725  .00021367  00000+0  57041-3 0  9991
2 42779  97.1909 336.9244 0007512 211.9451 148.1340 15.38105050296416
LEMUR-2-LISASAURUS      
1 42780U 17036R   22292.86275234  .00024480  00000+0  72558-3 0  9999
2 42780  97.1907 332.6575 0007576 228.6141 131.4452 15.34809883296103
LEMUR-2-SAM-AMELIA      
1 42781U 17036S   22293.10336091  .00008627  00000+0  28669-3 0  9996
2 42781  97.1921 333.3914 0008371 228.3469 131.7057 15.31393819296141
LEMUR-2-MCPEAKE         
1 42782U 17036T   22293.12009632  .00016687  00000+0  48931-3 0  9996
2 42782  97.1900 334.6857 0007475 219.7745 140.2952 15.35227321296264
LEMUR-2-GREENBERG       
1 42837U 17042N   22293.11533044  .00002691  00000+0  25558-3 0  9992
2 42837  97.4127 143.8356 0011359 304.4676  55.5471 14.94235187286888
LEMUR-2-ANDIS           
1 42838U 17042P   22293.37849057  .00002737  00000+0  25963-3 0  9996
2 42838  97.4110 144.0139 0011432 302.9814  57.0308 14.94270003286929
LEMUR-2-MONSON          
1 42839U 17042Q   22292.81360214  .00003436  00000+0  32658-3 0  9994
2 42839  97.4132 143.2238 0010895 306.5436  53.4781 14.94041109286813
LEMUR-2-FURIAUS         
1 42840U 17042R   22293.48967198  .00002864  00000+0  27583-3 0  9999
2 42840  97.4167 144.2172 0011391 304.8820  55.1330 14.93643769286910
LEMUR-2-PETERG          
1 42841U 17042S   22293.03036604  .00001627  00000+0  15731-3 0  9998
2 42841  97.4189 144.9477 0010942 301.6526  58.3627 14.94042062286913
LEMUR-2-DEMBITZ         
1 42842U 17042T   22292.58837446  .00002705  00000+0  25558-3 0  9997
2 42842  97.4153 144.4046 0011022 302.7840  57.2319 14.94453407286851
LEMUR-2-ZACHARY         
1 42845U 17042W   22293.13638494  .00004247  00000+0  39044-3 0  9992
2 42845  97.4042 144.0617 0010796 301.9039  58.1132 14.95243155286984
LEMUR-2-MCCAFFERTY      
1 43123U 18004N   22293.52623230  .00029378  00000+0  69926-3 0  9990
2 43123  97.3678  13.5145 0005333 251.2429 108.8240 15.41564131265796
LEMUR-2-PETERWEBSTER    
1 43124U 18004P   22293.20942494  .00030990  00000+0  75491-3 0  9998
2 43124  97.3677  12.7459 0005623 255.7145 104.3477 15.40850506265720
LEMUR-2-BROWNCOW        
1 43125U 18004Q   22293.18928492  .00033105  00000+0  73496-3 0  9992
2 43125  97.3737  14.8334 0005477 248.5643 111.5021 15.43628067265838
LEMUR-2-DAVEWILSON      
1 43126U 18004R   22292.82597521  .00041019  00000+0  89674-3 0  9996
2 43126  97.3719  14.3082 0005459 250.7749 109.2909 15.44040693265772
LEMUR-2-MARSHALL        
1 43165U 18010C   22292.84261987  .00012509  00000+0  38988-3 0  9996
2 43165  82.9104 307.9156 0022649 244.6449 115.2449 15.32858352263517
LEMUR-2-TALLHAMN-ATC    
1 43167U 18010E   22293.46337996  .00013214  00000+0  46952-3 0  9995
2 43167  82.9150 314.0889 0017500 270.9339  88.9897 15.28742573263191
LEMUR-2-JIN-LUEN        
1 43182U 18014C   22293.17640907  .00003101  00000+0  25352-3 0  9998
2 43182  97.6318 194.6357 0013522 246.6873 113.2928 15.00026868257587
LEMUR-2-URAMCHANSOL     
1 43183U 18014D   22293.18704751  .00004696  00000+0  38013-3 0  9996
2 43183  97.6310 194.8705 0014616 235.6572 124.3270 15.00140201257590
LEMUR-2-KADI            
1 43184U 18014E   22293.19140412  .00003935  00000+0  32431-3 0  9999
2 43184  97.6322 194.6916 0012912 238.0593 121.9375 14.99565624257588
LEMUR-2-THENICKMOLO     
1 43185U 18014F   22292.54515590  .00005468  00000+0  44569-3 0  9999
2 43185  97.6365 194.3229 0009412 232.4154 127.6215 14.99847311257494
LEMUR-2-VU              
1 43558U 18046E   22293.30990137  .00063835  00000+0  85101-3 0  9996
2 43558  51.6334 266.7846 0008897 117.9194 242.2700 15.57462847238922
LEMUR-2-ALEXANDER       
1 43559U 18046F   22292.23679317  .00098484  00000+0  11285-2 0  9991
2 43559  51.6365 268.6613 0007351 119.1327 241.0403 15.61279000238587
LEMUR-2-YUASA           
1 43560U 18046G   22293.15515929  .00078881  00000+0  95857-3 0  9990
2 43560  51.6375 267.2731 0007161 128.1886 231.9752 15.59844496238900
LEMUR-2-TOMHENDERSON    
1 43561U 18046H   22293.17143842  .00052872  00000+0  78527-3 0  9991
2 43561  51.6382 272.5832 0007617 121.1833 238.9906 15.54631277238398
LEMUR-2-ZUPANSKI        
1 43695U 18088F   22293.29183650  .00019392  00000+0  61866-3 0  9997
2 43695  85.0289 229.8849 0014731  46.7934 313.4541 15.32273464218966
LEMUR-2-CHANUSIAK       
1 43697U 18088H   22293.28928265  .00023424  00000+0  71283-3 0  9992
2 43697  85.0345 229.8604 0013141  28.1522 332.0434 15.33797351219125
LEMUR-2-ORZULAK         
1 43731U 18096N   22293.49797605  .00076624  00000+0  11331-2 0  9992
2 43731  97.3589  20.6952 0012760 301.1928  58.8075 15.54961411217599
LEMUR-2-KOBYSZCZE       
1 43732U 18096P   22293.21212631  .00065606  00000+0  95885-3 0  9999
2 43732  97.3597  20.9275 0012260 303.8736  56.1351 15.55332651217576
LEMUR-2-DULY            
1 43745U 18096AC  22293.21524926  .00051130  00000+0  83490-3 0  9992
2 43745  97.3577  20.3359 0012334 308.0844  51.9295 15.52329771217558
LEMUR-2-VLADIMIR        
1 43746U 18096AD  22293.22574371  .00088713  00000+0  11102-2 0  9990
2 43746  97.3576  21.6574 0013102 299.7876  60.2077 15.59404856217664
LEMUR-2-CHRISTINAHOLT   
1 43882U 18111G   22292.81021847  .00005111  00000+0  41116-3 0  9998
2 43882  97.6585 198.5585 0007126 222.3542 137.7133 15.00402568208404
LEMUR-2-TINYKEV         
1 43883U 18111H   22293.19234192  .00005618  00000+0  44593-3 0  9994
2 43883  97.6543 199.1634 0012620 219.9190 140.1107 15.00831239206472
LEMUR-2-REMY-COLTON     
1 43884U 18111J   22293.47485708  .00004892  00000+0  38915-3 0  9991
2 43884  97.6596 199.9779 0003150 342.7444  17.3673 15.00863613206546
LEMUR-2-GUSTAVO         
1 43885U 18111K   22293.26745097  .00004753  00000+0  38194-3 0  9994
2 43885  97.6589 199.3884 0012101 228.4257 131.5930 15.00444451206481
LEMUR-2-ZO              
1 43886U 18111L   22293.31921157  .00004111  00000+0  32989-3 0  9998
2 43886  97.6634 199.7564 0015158 251.5381 108.4196 15.00544756206501
LEMUR-2-NATALIEMURRAY   
1 43887U 18111M   22293.20551020  .00004924  00000+0  39345-3 0  9990
2 43887  97.6606 199.9481 0007558 195.0846 165.0153 15.00674417208506
LEMUR-2-SARAHBETTYBOO   
1 43888U 18111N   22293.16303845  .00006066  00000+0  48181-3 0  9993
2 43888  97.6722 200.1683 0011043 294.9695  65.0382 15.00788477208505
LEMUR-2-DAISY-HARPER    
1 43889U 18111P   22293.15956011  .00005888  00000+0  46757-3 0  9990
2 43889  97.6698 200.3602 0010160 302.6605  57.3638 15.00821582208501
